start=new Date('2021-11-08T00:00:00.000Z').valueOf();
sats=[{"MEAN_ELEMENT_THEORY":"SGP4","SEMIMAJOR_AXIS":"6925.382","DECAY_DATE":null,"CLASSIFICATION_TYPE":"U","REF_FRAME":"TEME","EPHEMERIS_TYPE":"0","ARG_OF_PERICENTER":"83.2046","LAUNCH_DATE":"2020-08-07","ECCENTRICITY":"0.00013930","SITE":"AFETR","TLE_LINE1":"1 46053U 20055AC  21311.58572369  .00001140  00000-0  95464-4 0  9991","INCLINATION":"53.0547","FILE":"3207387","OBJECT_NAME":"STARLINK-1543","RA_OF_ASC_NODE":"23.4499","NORAD_CAT_ID":"46053","GP_ID":"189179893","ELEMENT_SET_NO":"999","TIME_SYSTEM":"UTC","PERIAPSIS":"546.282","COUNTRY_CODE":"US","MEAN_MOTION":"15.06389218","TLE_LINE2":"2 46053  53.0547  23.4499 0001393  83.2046 276.9102 15.06389218 70427","OBJECT_ID":"2020-055AC","MEAN_MOTION_DOT":"0.00001140","RCS_SIZE":"LARGE","REV_AT_EPOCH":"7042","PERIOD":"95.593","OBJECT_TYPE":"PAYLOAD","MEAN_ANOMALY":"276.9102","APOAPSIS":"548.211","BSTAR":"0.00009546400000","EPOCH":"2021-11-07T14:03:26.526816","CENTER_NAME":"EARTH","MEAN_MOTION_DDOT":"0.0000000000000"},{"PERIOD":"95.594","REV_AT_EPOCH":"7043","MEAN_MOTION_DOT":"0.00011363","RCS_SIZE":"LARGE","OBJECT_ID":"2020-055AD","CENTER_NAME":"EARTH","MEAN_MOTION_DDOT":"0.0000000000000","EPOCH":"2021-11-07T15:49:38.670240","BSTAR":"0.00078117000000","OBJECT_TYPE":"PAYLOAD","MEAN_ANOMALY":"286.4000","APOAPSIS":"548.232","GP_ID":"189213993","ELEMENT_SET_NO":"999","TIME_SYSTEM":"UTC","RA_OF_ASC_NODE":"23.1109","NORAD_CAT_ID":"46054","INCLINATION":"53.0552","OBJECT_NAME":"STARLINK-1548","FILE":"3207836","TLE_LINE2":"2 46054  53.0552  23.1109 0001335  73.7136 286.4000 15.06369308 70431","COUNTRY_CODE":"US","MEAN_MOTION":"15.06369308","PERIAPSIS":"546.383","ECCENTRICITY":"0.00013350","TLE_LINE1":"1 46054U 20055AD  21311.65947535  .00011363  00000-0  78117-3 0  9994","SITE":"AFETR","DECAY_DATE":null,"SEMIMAJOR_AXIS":"6925.443","MEAN_ELEMENT_THEORY":"SGP4","LAUNCH_DATE":"2020-08-07","ARG_OF_PERICENTER":"73.7136","EPHEMERIS_TYPE":"0","REF_FRAME":"TEME","CLASSIFICATION_TYPE":"U"},{"REF_FRAME":"TEME","CLASSIFICATION_TYPE":"U","LAUNCH_DATE":"2020-08-07","ARG_OF_PERICENTER":"79.3332","EPHEMERIS_TYPE":"0","MEAN_ELEMENT_THEORY":"SGP4","DECAY_DATE":null,"SEMIMAJOR_AXIS":"6925.425","SITE":"AFETR","TLE_LINE1":"1 46055U 20055AE  21311.57837670  .00001304  00000-0  10650-3 0  9996","ECCENTRICITY":"0.00014320","COUNTRY_CODE":"US","MEAN_MOTION":"15.06375113","PERIAPSIS":"546.298","TLE_LINE2":"2 46055  53.0555  23.4892 0001432  79.3332 280.7818 15.06375113 69876","INCLINATION":"53.0555","FILE":"3207593","OBJECT_NAME":"STARLINK-1554","GP_ID":"189189378","ELEMENT_SET_NO":"999","TIME_SYSTEM":"UTC","RA_OF_ASC_NODE":"23.4892","NORAD_CAT_ID":"46055","APOAPSIS":"548.282","OBJECT_TYPE":"PAYLOAD","MEAN_ANOMALY":"280.7818","CENTER_NAME":"EARTH","MEAN_MOTION_DDOT":"0.0000000000000","EPOCH":"2021-11-07T13:52:51.746880","BSTAR":"0.00010650000000","MEAN_MOTION_DOT":"0.00001304","RCS_SIZE":"LARGE","OBJECT_ID":"2020-055AE","PERIOD":"95.594","REV_AT_EPOCH":"6987"},{"TLE_LINE2":"2 46056  53.0551  23.0837 0001345  69.5332 290.5801 15.06387652 70449","COUNTRY_CODE":"US","MEAN_MOTION":"15.06387652","PERIAPSIS":"546.320","GP_ID":"189214989","ELEMENT_SET_NO":"999","TIME_SYSTEM":"UTC","RA_OF_ASC_NODE":"23.0837","NORAD_CAT_ID":"46056","INCLINATION":"53.0551","OBJECT_NAME":"STARLINK-1561","FILE":"3207836","MEAN_MOTION_DDOT":"0.0000000000000","CENTER_NAME":"EARTH","EPOCH":"2021-11-07T16:00:13.370688","BSTAR":"0.00013378000000","OBJECT_TYPE":"PAYLOAD","MEAN_ANOMALY":"290.5801","APOAPSIS":"548.183","PERIOD":"95.593","REV_AT_EPOCH":"7044","MEAN_MOTION_DOT":"0.00001711","RCS_SIZE":"LARGE","OBJECT_ID":"2020-055AF","LAUNCH_DATE":"2020-08-07","ARG_OF_PERICENTER":"69.5332","EPHEMERIS_TYPE":"0","REF_FRAME":"TEME","CLASSIFICATION_TYPE":"U","DECAY_DATE":null,"SEMIMAJOR_AXIS":"6925.386","MEAN_ELEMENT_THEORY":"SGP4","TLE_LINE1":"1 46056U 20055AF  21311.66682142  .00001711  00000-0  13378-3 0  9991","SITE":"AFETR","ECCENTRICITY":"0.00013450"},{"INCLINATION":"53.0551","FILE":"3207387","OBJECT_NAME":"STARLINK-1564","ELEMENT_SET_NO":"999","GP_ID":"189179394","TIME_SYSTEM":"UTC","RA_OF_ASC_NODE":"23.9196","NORAD_CAT_ID":"46058","COUNTRY_CODE":"US","MEAN_MOTION":"15.06370387","PERIAPSIS":"546.428","TLE_LINE2":"2 46058  53.0551  23.9196 0001266  79.6534 280.4597 15.06370387 70409","MEAN_MOTION_DOT":"0.00002153","RCS_SIZE":"LARGE","OBJECT_ID":"2020-055AH","PERIOD":"95.594","REV_AT_EPOCH":"7040","OBJECT_TYPE":"PAYLOAD","APOAPSIS":"548.181","MEAN_ANOMALY":"280.4597","MEAN_MOTION_DDOT":"0.0000000000000","CENTER_NAME":"EARTH","EPOCH":"2021-11-07T11:29:33.405504","BSTAR":"0.00016352000000","MEAN_ELEMENT_THEORY":"SGP4","DECAY_DATE":null,"SEMIMAJOR_AXIS":"6925.439","REF_FRAME":"TEME","CLASSIFICATION_TYPE":"U","LAUNCH_DATE":"2020-08-07","ARG_OF_PERICENTER":"79.6534","EPHEMERIS_TYPE":"0","ECCENTRICITY":"0.00012660","SITE":"AFETR","TLE_LINE1":"1 46058U 20055AH  21311.47885886  .00002153  00000-0  16352-3 0  9998"},{"ECCENTRICITY":"0.00013070","TLE_LINE1":"1 46059U 20055AJ  21311.68527739  .00015785  00000-0  10772-2 0  9996","SITE":"AFETR","SEMIMAJOR_AXIS":"6925.453","DECAY_DATE":null,"MEAN_ELEMENT_THEORY":"SGP4","EPHEMERIS_TYPE":"0","ARG_OF_PERICENTER":"73.7854","LAUNCH_DATE":"2020-08-07","CLASSIFICATION_TYPE":"U","REF_FRAME":"TEME","REV_AT_EPOCH":"7039","PERIOD":"95.594","OBJECT_ID":"2020-055AJ","RCS_SIZE":"LARGE","MEAN_MOTION_DOT":"0.00015785","EPOCH":"2021-11-07T16:26:47.966496","BSTAR":"0.00107720000000","CENTER_NAME":"EARTH","MEAN_MOTION_DDOT":"0.0000000000000","OBJECT_TYPE":"PAYLOAD","MEAN_ANOMALY":"286.3278","APOAPSIS":"548.223","NORAD_CAT_ID":"46059","RA_OF_ASC_NODE":"23.0045","TIME_SYSTEM":"UTC","ELEMENT_SET_NO":"999","GP_ID":"189213493","OBJECT_NAME":"STARLINK-1570","FILE":"3207836","INCLINATION":"53.0538","TLE_LINE2":"2 46059  53.0538  23.0045 0001307  73.7854 286.3278 15.06366025 70398","PERIAPSIS":"546.413","MEAN_MOTION":"15.06366025","COUNTRY_CODE":"US"},{"RCS_SIZE":"LARGE","MEAN_MOTION_DOT":"0.00018540","OBJECT_ID":"2020-055AK","PERIOD":"95.595","REV_AT_EPOCH":"7040","APOAPSIS":"548.574","OBJECT_TYPE":"PAYLOAD","MEAN_ANOMALY":"278.2099","MEAN_MOTION_DDOT":"0.0000000000000","CENTER_NAME":"EARTH","EPOCH":"2021-11-07T16:21:29.739744","BSTAR":"0.00126160000000","FILE":"3207836","OBJECT_NAME":"STARLINK-1572","INCLINATION":"53.0550","TIME_SYSTEM":"UTC","GP_ID":"189214244","ELEMENT_SET_NO":"999","NORAD_CAT_ID":"46060","RA_OF_ASC_NODE":"23.0166","MEAN_MOTION":"15.06360464","COUNTRY_CODE":"US","PERIAPSIS":"546.095","TLE_LINE2":"2 46060  53.0550  23.0166 0001790  81.9093 278.2099 15.06360464 70404","ECCENTRICITY":"0.00017900","SITE":"AFETR","TLE_LINE1":"1 46060U 20055AK  21311.68159421  .00018540  00000-0  12616-2 0  9998","MEAN_ELEMENT_THEORY":"SGP4","DECAY_DATE":null,"SEMIMAJOR_AXIS":"6925.470","REF_FRAME":"TEME","CLASSIFICATION_TYPE":"U","LAUNCH_DATE":"2020-08-07","EPHEMERIS_TYPE":"0","ARG_OF_PERICENTER":"81.9093"},{"EPOCH":"2021-11-07T14:35:19.680288","BSTAR":"0.00091731000000","MEAN_MOTION_DDOT":"0.0000000000000","CENTER_NAME":"EARTH","OBJECT_TYPE":"PAYLOAD","MEAN_ANOMALY":"287.8513","APOAPSIS":"548.248","REV_AT_EPOCH":"7042","PERIOD":"95.594","OBJECT_ID":"2020-055AL","RCS_SIZE":"LARGE","MEAN_MOTION_DOT":"0.00013396","TLE_LINE2":"2 46061  53.0544  23.3363 0001353  72.2624 287.8513 15.06368101 70423","PERIAPSIS":"546.374","MEAN_MOTION":"15.06368101","COUNTRY_CODE":"US","NORAD_CAT_ID":"46061","RA_OF_ASC_NODE":"23.3363","TIME_SYSTEM":"UTC","GP_ID":"189214489","ELEMENT_SET_NO":"999","FILE":"3207836","OBJECT_NAME":"STARLINK-1573","INCLINATION":"53.0544","TLE_LINE1":"1 46061U 20055AL  21311.60786667  .00013396  00000-0  91731-3 0  9999","SITE":"AFETR","ECCENTRICITY":"0.00013530","ARG_OF_PERICENTER":"72.2624","EPHEMERIS_TYPE":"0","LAUNCH_DATE":"2020-08-07","CLASSIFICATION_TYPE":"U","REF_FRAME":"TEME","SEMIMAJOR_AXIS":"6925.446","DECAY_DATE":null,"MEAN_ELEMENT_THEORY":"SGP4"},{"TIME_SYSTEM":"UTC","GP_ID":"189213744","ELEMENT_SET_NO":"999","NORAD_CAT_ID":"46062","RA_OF_ASC_NODE":"22.9104","FILE":"3207836","OBJECT_NAME":"STARLINK-1574","INCLINATION":"53.0554","TLE_LINE2":"2 46062  53.0554  22.9104 0001323  76.5471 283.5665 15.06385300 70406","MEAN_MOTION":"15.06385300","COUNTRY_CODE":"US","PERIAPSIS":"546.342","PERIOD":"95.593","REV_AT_EPOCH":"7040","RCS_SIZE":"LARGE","MEAN_MOTION_DOT":"0.00032609","OBJECT_ID":"2020-055AM","MEAN_MOTION_DDOT":"0.0000000000000","CENTER_NAME":"EARTH","BSTAR":"0.00219880000000","EPOCH":"2021-11-07T16:58:38.585856","MEAN_ANOMALY":"283.5665","OBJECT_TYPE":"PAYLOAD","APOAPSIS":"548.175","DECAY_DATE":null,"SEMIMAJOR_AXIS":"6925.394","MEAN_ELEMENT_THEORY":"SGP4","LAUNCH_DATE":"2020-08-07","ARG_OF_PERICENTER":"76.5471","EPHEMERIS_TYPE":"0","REF_FRAME":"TEME","CLASSIFICATION_TYPE":"U","ECCENTRICITY":"0.00013230","TLE_LINE1":"1 46062U 20055AM  21311.70739104  .00032609  00000-0  21988-2 0  9999","SITE":"AFETR"},{"LAUNCH_DATE":"2020-08-07","ARG_OF_PERICENTER":"70.9578","EPHEMERIS_TYPE":"0","REF_FRAME":"TEME","CLASSIFICATION_TYPE":"U","DECAY_DATE":null,"SEMIMAJOR_AXIS":"6925.382","MEAN_ELEMENT_THEORY":"SGP4","TLE_LINE1":"1 46063U 20055AN  21311.70370738  .00037538  00000-0  25263-2 0  9990","SITE":"AFETR","ECCENTRICITY":"0.00015660","TLE_LINE2":"2 46063  53.0552  22.9223 0001566  70.9578 289.1580 15.06389166 70437","MEAN_MOTION":"15.06389166","COUNTRY_CODE":"US","PERIAPSIS":"546.162","TIME_SYSTEM":"UTC","GP_ID":"189213994","ELEMENT_SET_NO":"999","NORAD_CAT_ID":"46063","RA_OF_ASC_NODE":"22.9223","FILE":"3207836","OBJECT_NAME":"STARLINK-1577","INCLINATION":"53.0552","CENTER_NAME":"EARTH","MEAN_MOTION_DDOT":"0.0000000000000","EPOCH":"2021-11-07T16:53:20.317632","BSTAR":"0.00252630000000","APOAPSIS":"548.331","OBJECT_TYPE":"PAYLOAD","MEAN_ANOMALY":"289.1580","PERIOD":"95.593","REV_AT_EPOCH":"7043","RCS_SIZE":"LARGE","MEAN_MOTION_DOT":"0.00037538","OBJECT_ID":"2020-055AN"}];
